NORAD_CAT_ID,OBJECT_NAME,OBJECT_TYPE,EPOCH,MEAN_MOTION,ECCENTRICITY,INCLINATION,RA_OF_ASC_NODE,ARG_OF_PERICENTER,MEAN_ANOMALY,BSTAR,MEAN_MOTION_DOT,MEAN_MOTION_DDOT,TLE_LINE0,TLE_LINE1,TLE_LINE2,SEMIMAJOR_AXIS,PERIOD,APOGEE,PERIGEE,DECAYED
52846.0,STARLINK-4212,PAYLOAD,2023-01-05 12:33:14,15.08846768,0.000334,53.2139,197.8299,38.3121,321.8108,0.00024756,3.654e-05,0.0,0 STARLINK-4212,1 52846U 22062S   23005.52308801  .00003654  00000-0  24756-3 0  9999,2 52846  53.2139 197.8299 0003340  38.3121 321.8108 15.08846768 31283,6917.86,95.437,542.035,537.414,0.0
52846.0,STARLINK-4212,PAYLOAD,2023-01-06 12:24:01,15.08845849,0.0003403,53.214,193.3696,39.7519,320.3722,0.00010006,1.304e-05,0.0,0 STARLINK-4212,1 52846U 22062S   23006.51668553  .00001304  00000-0  10006-3 0  9995,2 52846  53.2140 193.3696 0003403  39.7519 320.3722 15.08845849 31435,6917.863,95.437,542.082,537.373,0.0
52846.0,STARLINK-4212,PAYLOAD,2023-01-06 21:56:20,15.08848105,0.0003476,53.2138,191.586,39.3042,320.8202,7.677e-05,9.33e-06,0.0,0 STARLINK-4212,1 52846U 22062S   23006.91412287  .00000933  00000-0  76770-4 0  9998,2 52846  53.2138 191.5860 0003476  39.3042 320.8202 15.08848105 31001,6917.856,95.437,542.125,537.316,0.0
52846.0,STARLINK-4212,PAYLOAD,2023-01-07 15:25:34,15.08841866,0.0003397,53.2151,188.3145,39.6984,320.4257,-2.7111e-05,-7.200000000000001e-06,0.0,0 STARLINK-4212,1 52846U 22062S   23007.64276508 -.00000720  00000-0 -27111-4 0  9994,2 52846  53.2151 188.3145 0003397  39.6984 320.4257 15.08841866 31605,6917.875,95.437,542.09,537.39,0.0
52846.0,STARLINK-4212,PAYLOAD,2023-01-07 21:47:07,15.08843916,0.0003336,53.2152,187.1246,37.3826,322.7398,-3.7466e-05,-8.85e-06,0.0,0 STARLINK-4212,1 52846U 22062S   23007.90772314 -.00000885  00000-0 -37466-4 0  9995,2 52846  53.2152 187.1246 0003336  37.3826 322.7398 15.08843916 31157,6917.868,95.437,542.0409999999998,537.4259999999998,0.0
52846.0,STARLINK-4212,PAYLOAD,2023-01-08 12:05:35,15.08842386,0.0003374,53.2151,184.4481,41.3231,318.8016,9.0814e-05,1.157e-05,0.0,0 STARLINK-4212,1 52846U 22062S   23008.50388012  .00001157  00000-0  90814-4 0  9997,2 52846  53.2151 184.4481 0003374  41.3231 318.8016 15.08842386 31247,6917.873000000001,95.437,542.072,537.404,0.0
52846.0,STARLINK-4212,PAYLOAD,2023-01-08 20:02:30,15.08843568,0.0003375,53.2152,182.9611,42.1714,317.9537,6.5769e-05,7.58e-06,0.0,0 STARLINK-4212,1 52846U 22062S   23008.83508046  .00000758  00000-0  65769-4 0  9991,2 52846  53.2152 182.9611 0003375  42.1714 317.9537 15.08843568 31782,6917.8690000000015,95.437,542.069,537.4,0.0
52846.0,STARLINK-4212,PAYLOAD,2023-01-08 21:37:54,15.08840256,0.00034,53.2152,182.6642,41.7318,318.3933,4.1607e-05,3.73e-06,0.0,0 STARLINK-4212,1 52846U 22062S   23008.90132366  .00000373  00000-0  41607-4 0  9995,2 52846  53.2152 182.6642 0003400  41.7318 318.3933 15.08840256 31301,6917.88,95.438,542.097,537.393,0.0
52846.0,STARLINK-4212,PAYLOAD,2023-01-09 03:59:27,15.08836978,0.0003388,53.2154,181.4747,42.0346,318.0905,-4.3919e-06,-3.59e-06,0.0,0 STARLINK-4212,1 52846U 22062S   23009.16628688 -.00000359  00000-0 -43919-5 0  9996,2 52846  53.2154 181.4747 0003388  42.0346 318.0905 15.08836978 31836,6917.89,95.438,542.0980000000002,537.411,0.0
52846.0,STARLINK-4212,PAYLOAD,2023-01-09 11:56:22,15.08841212,0.0003536,53.2155,179.9877,37.4168,322.707,4.1968e-05,3.79e-06,0.0,0 STARLINK-4212,1 52846U 22062S   23009.49748336  .00000379  00000-0  41968-4 0  9996,2 52846  53.2155 179.9877 0003536  37.4168 322.7070 15.08841212 31391,6917.877,95.437,542.188,537.2959999999998,0.0
52846.0,STARLINK-4212,PAYLOAD,2023-01-09 18:17:54,15.08843254,0.0003565,53.2154,178.7983,38.0276,322.0967,6.1659e-05,6.93e-06,0.0,0 STARLINK-4212,1 52846U 22062S   23009.76244177  .00000693  00000-0  61659-4 0  9998,2 52846  53.2154 178.7983 0003565  38.0276 322.0967 15.08843254 31929,6917.87,95.437,542.202,537.269,0.0
52846.0,STARLINK-4212,PAYLOAD,2023-01-09 21:28:41,15.08839233,0.0003399,53.2155,178.2035,42.2537,317.8717,0.000136,1.876e-05,0.0,0 STARLINK-4212,1 52846U 22062S   23009.89492316  .00001876  00000-0  13600-3 0  9998,2 52846  53.2155 178.2035 0003399  42.2537 317.8717 15.08839233 31450,6917.883000000002,95.438,542.099,537.396,0.0
52846.0,STARLINK-4212,PAYLOAD,2023-01-10 13:22:33,15.08833856,0.000342,53.2148,175.2296,41.6606,318.4646,-1.1353e-05,-4.7e-06,0.0,0 STARLINK-4212,1 52846U 22062S   23010.55732971 -.00000470  00000-0 -11353-4 0  9992,2 52846  53.2148 175.2296 0003420  41.6606 318.4646 15.08833856 32042,6917.899,95.438,542.13,537.398,0.0
52846.0,STARLINK-4212,PAYLOAD,2023-01-11 13:13:22,15.08817173,0.0003481,53.2147,170.7691,44.8163,315.311,-8.2497e-05,-1.601e-05,0.0,0 STARLINK-4212,1 52846U 22062S   23011.55094954 -.00001601  00000-0 -82497-4 0  9999,2 52846  53.2147 170.7691 0003481  44.8163 315.3110 15.08817173 32192,6917.95,95.439,542.2230000000002,537.4069999999998,0.0
52846.0,STARLINK-4212,PAYLOAD,2023-01-11 19:34:54,15.0882483,0.000379,53.2137,169.5778,46.4246,313.706,-6.633e-05,-1.344e-05,0.0,0 STARLINK-4212,1 52846U 22062S   23011.81590884 -.00001344  00000-0 -66330-4 0  9993,2 52846  53.2137 169.5778 0003790  46.4246 313.7060 15.08824830 31740,6917.927,95.439,542.414,537.17,0.0
52846.0,STARLINK-4212,PAYLOAD,2023-01-12 03:31:49,15.08834098,0.0003355,53.2148,168.0932,46.8338,313.2934,-1.3637e-05,-5.06e-06,0.0,0 STARLINK-4212,1 52846U 22062S   23012.14710195 -.00000506  00000-0 -13637-4 0  9990,2 52846  53.2148 168.0932 0003355  46.8338 313.2934 15.08834098 32283,6917.898,95.438,542.0840000000002,537.442,0.0
52846.0,STARLINK-4212,PAYLOAD,2023-01-12 16:14:54,15.08834974,0.0003058999999999,53.2157,165.7147,42.8602,317.2628,0.00010649,1.406e-05,0.0,0 STARLINK-4212,1 52846U 22062S   23012.67701908  .00001406  00000-0  10649-3 0  9997,2 52846  53.2157 165.7147 0003059  42.8602 317.2628 15.08834974 31877,6917.896,95.438,541.877,537.645,0.0
52846.0,STARLINK-4212,PAYLOAD,2023-01-13 03:22:36,15.0883496,0.0003168,53.2153,163.6331,46.2062,313.9191,0.00028832,4.303e-05,0.0,0 STARLINK-4212,1 52846U 22062S   23013.14069685  .00004303  00000-0  28832-3 0  9991,2 52846  53.2153 163.6331 0003168  46.2062 313.9191 15.08834960 32430,6917.896,95.438,541.952,537.569,0.0
52846.0,STARLINK-4212,PAYLOAD,2023-01-13 12:54:55,15.08831631,0.0003346,53.2145,161.8494,48.9731,311.155,0.00023065,3.383e-05,0.0,0 STARLINK-4212,1 52846U 22062S   23013.53814500  .00003383  00000-0  23065-3 0  9998,2 52846  53.2145 161.8494 0003346  48.9731 311.1550 15.08831631 32498,6917.906,95.438,542.086,537.456,0.0
52846.0,STARLINK-4212,PAYLOAD,2023-01-13 19:16:28,15.08841155,0.0003171999999999,53.2148,160.6569,53.7332,306.3952,0.00025824,3.824e-05,0.0,0 STARLINK-4212,1 52846U 22062S   23013.80310381  .00003824  00000-0  25824-3 0  9991,2 52846  53.2148 160.6569 0003172  53.7332 306.3952 15.08841155 32044,6917.877,95.437,541.936,537.548,0.0
52846.0,STARLINK-4212,PAYLOAD,2023-01-14 03:13:23,15.08845557,0.0003113,53.2144,159.1703,53.9844,306.1437,0.00021737,3.173e-05,0.0,0 STARLINK-4212,1 52846U 22062S   23014.13430124  .00003173  00000-0  21737-3 0  9992,2 52846  53.2144 159.1703 0003113  53.9844 306.1437 15.08845557 32583,6917.863,95.437,541.882,537.575,0.0
52846.0,STARLINK-4212,PAYLOAD,2023-01-15 12:36:29,15.0884184,0.0003063999999999,53.2133,152.9265,60.8701,299.2597,5.8133e-05,6.37e-06,0.0,0 STARLINK-4212,1 52846U 22062S   23015.52534284  .00000637  00000-0  58133-4 0  9991,2 52846  53.2133 152.9265 0003064  60.8701 299.2597 15.08841840 32792,6917.875,95.437,541.859,537.62,0.0
52846.0,STARLINK-4212,PAYLOAD,2023-01-15 18:58:01,15.08851034,0.0003074,53.2138,151.7378,57.9615,302.1676,0.00018038,2.584e-05,0.0,0 STARLINK-4212,1 52846U 22062S   23015.79029646  .00002584  00000-0  18038-3 0  9993,2 52846  53.2138 151.7378 0003074  57.9615 302.1676 15.08851034 32834,6917.847,95.437,541.8380000000001,537.585,0.0
52846.0,STARLINK-4212,PAYLOAD,2023-01-16 14:02:39,15.08839963,0.0003003,53.2155,148.1671,63.1768,296.9531,0.00011006,1.463e-05,0.0,0 STARLINK-4212,1 52846U 22062S   23016.58518234  .00001463  00000-0  11006-3 0  9990,2 52846  53.2155 148.1671 0003003  63.1768 296.9531 15.08839963 32959,6917.880999999999,95.438,541.823,537.668,0.0
52846.0,STARLINK-4212,PAYLOAD,2023-01-16 18:48:48,15.08856435,0.0002955,53.2148,147.2772,61.291,298.8379,0.00023634,3.477e-05,0.0,0 STARLINK-4212,1 52846U 22062S   23016.78389330  .00003477  00000-0  23634-3 0  9992,2 52846  53.2148 147.2772 0002955  61.2910 298.8379 15.08856435 32983,6917.83,95.437,541.739,537.651,0.0
52846.0,STARLINK-4212,PAYLOAD,2023-01-17 04:21:08,15.08818189,0.0002826,53.2148,145.4942,69.5596,290.57,-0.00014306,-2.563e-05,0.0,0 STARLINK-4212,1 52846U 22062S   23017.18135349 -.00002563  00000-0 -14306-3 0  9999,2 52846  53.2148 145.4942 0002826  69.5596 290.5700 15.08818189 33049,6917.946999999999,95.439,541.7669999999999,537.857,0.0
52846.0,STARLINK-4212,PAYLOAD,2023-01-17 10:42:41,15.0882131,0.0002822,53.2144,144.3039,70.6617,289.468,-0.00024544,-4.191e-05,0.0,0 STARLINK-4212,1 52846U 22062S   23017.44631488 -.00004191  00000-0 -24544-3 0  9997,2 52846  53.2144 144.3039 0002822  70.6617 289.4680 15.08821310 32596,6917.938,95.439,541.755,537.85,0.0
52846.0,STARLINK-4212,PAYLOAD,2023-01-17 15:28:50,15.0882967,0.0002721,53.2149,143.4127,68.5443,291.5839,-6.5588e-05,-1.332e-05,0.0,0 STARLINK-4212,1 52846U 22062S   23017.64503184 -.00001332  00000-0 -65588-4 0  9998,2 52846  53.2149 143.4127 0002721  68.5443 291.5839 15.08829670 33116,6917.911999999999,95.438,541.659,537.895,0.0
52846.0,STARLINK-4212,PAYLOAD,2023-01-18 12:08:51,15.08849088,0.0002501999999999,53.2158,139.5469,72.03,288.0965,0.00013117,1.8e-05,0.0,0 STARLINK-4212,1 52846U 22062S   23018.50614787  .00001800  00000-0  13117-3 0  9994,2 52846  53.2158 139.5469 0002502  72.0300 288.0965 15.08849088 32755,6917.853,95.437,541.448,537.987,0.0
